{
  "type": "FeatureCollection",
  "features": [
    {
      "type": "Feature",
      "properties": {
        "norad_id": 25590,
        "name": "COSMOS 2361",
        "group": "musson",
        "lat": 12.294008857101288,
        "lon": -9.732685818772945,
        "alt_km": 988.6187826494843,
        "timestamp": "2025-12-06T11:28:11.332475+00:00",
        "meta_object_name": "COSMOS 2361",
        "meta_object_id": "1998-076A",
        "meta_epoch": "2025-12-05T23:28:48.597600",
        "meta_mean_motion": 13.73216312,
        "meta_eccentricity": 0.00301112,
        "meta_inclination": 82.934,
        "meta_ra_of_asc_node": 349.0878,
        "meta_arg_of_pericenter": 285.2557,
        "meta_mean_anomaly": 138.6315,
        "meta_ephemeris_type": 0,
        "meta_classification_type": "U",
        "meta_norad_cat_id": 25590,
        "meta_element_set_no": 999,
        "meta_rev_at_epoch": 35018,
        "meta_bstar": 7.8965957e-05,
        "meta_mean_motion_dot": 8.8e-07,
        "meta_mean_motion_ddot": 0,
        "tle_line1": "1 25590U 98076A   25339.97834025  .00000088  00000+0  78966-4 0  9996",
        "tle_line2": "2 25590  82.9340 349.0878 0030111 285.2557 138.6315 13.73216312350181"
      },
      "geometry": {
        "type": "Point",
        "coordinates": [
          -9.732685818772945,
          12.294008857101288
        ]
      }
    },
    {
      "type": "Feature",
      "properties": {
        "norad_id": 26818,
        "name": "COSMOS 2378",
        "group": "musson",
        "lat": 62.915010773530625,
        "lon": 18.417301596252514,
        "alt_km": 1000.6145439560651,
        "timestamp": "2025-12-06T11:28:11.332496+00:00",
        "meta_object_name": "COSMOS 2378",
        "meta_object_id": "2001-023A",
        "meta_epoch": "2025-12-05T14:45:36.823392",
        "meta_mean_motion": 13.74141138,
        "meta_eccentricity": 0.00320258,
        "meta_inclination": 82.9278,
        "meta_ra_of_asc_node": 5.0081,
        "meta_arg_of_pericenter": 225.207,
        "meta_mean_anomaly": 252.4782,
        "meta_ephemeris_type": 0,
        "meta_classification_type": "U",
        "meta_norad_cat_id": 26818,
        "meta_element_set_no": 999,
        "meta_rev_at_epoch": 22825,
        "meta_bstar": 8.614543e-05,
        "meta_mean_motion_dot": 9.6e-07,
        "meta_mean_motion_ddot": 0,
        "tle_line1": "1 26818U 01023A   25339.61500953  .00000096  00000+0  86145-4 0  9994",
        "tle_line2": "2 26818  82.9278   5.0081 0032025 225.2070 252.4782 13.74141138228259"
      },
      "geometry": {
        "type": "Point",
        "coordinates": [
          18.417301596252514,
          62.915010773530625
        ]
      }
    },
    {
      "type": "Feature",
      "properties": {
        "norad_id": 27436,
        "name": "COSMOS 2389",
        "group": "musson",
        "lat": -67.17614711842205,
        "lon": 148.72170792625982,
        "alt_km": 1023.0447379619163,
        "timestamp": "2025-12-06T11:28:11.332509+00:00",
        "meta_object_name": "COSMOS 2389",
        "meta_object_id": "2002-026A",
        "meta_epoch": "2025-12-05T22:19:47.511264",
        "meta_mean_motion": 13.75153553,
        "meta_eccentricity": 0.00477505,
        "meta_inclination": 82.9496,
        "meta_ra_of_asc_node": 312.0261,
        "meta_arg_of_pericenter": 79.2496,
        "meta_mean_anomaly": 339.9615,
        "meta_ephemeris_type": 0,
        "meta_classification_type": "U",
        "meta_norad_cat_id": 27436,
        "meta_element_set_no": 999,
        "meta_rev_at_epoch": 18055,
        "meta_bstar": 7.5607418e-05,
        "meta_mean_motion_dot": 8.9e-07,
        "meta_mean_motion_ddot": 0,
        "tle_line1": "1 27436U 02026A   25339.93041101  .00000089  00000+0  75607-4 0  9998",
        "tle_line2": "2 27436  82.9496 312.0261 0047750  79.2496 339.9615 13.75153553180550"
      },
      "geometry": {
        "type": "Point",
        "coordinates": [
          148.72170792625982,
          -67.17614711842205
        ]
      }
    },
    {
      "type": "Feature",
      "properties": {
        "norad_id": 27818,
        "name": "COSMOS 2398",
        "group": "musson",
        "lat": -80.3383917634305,
        "lon": 143.95706602603704,
        "alt_km": 1015.1425081774887,
        "timestamp": "2025-12-06T11:28:11.332521+00:00",
        "meta_object_name": "COSMOS 2398",
        "meta_object_id": "2003-023A",
        "meta_epoch": "2025-12-05T22:15:44.291808",
        "meta_mean_motion": 13.72384696,
        "meta_eccentricity": 0.00323162,
        "meta_inclination": 82.9478,
        "meta_ra_of_asc_node": 277.7184,
        "meta_arg_of_pericenter": 130.0935,
        "meta_mean_anomaly": 295.6731,
        "meta_ephemeris_type": 0,
        "meta_classification_type": "U",
        "meta_norad_cat_id": 27818,
        "meta_element_set_no": 999,
        "meta_rev_at_epoch": 12723,
        "meta_bstar": 7.4558578e-05,
        "meta_mean_motion_dot": 8.4e-07,
        "meta_mean_motion_ddot": 0,
        "tle_line1": "1 27818U 03023A   25339.92759597  .00000084  00000+0  74559-4 0  9994",
        "tle_line2": "2 27818  82.9478 277.7184 0032316 130.0935 295.6731 13.72384696127235"
      },
      "geometry": {
        "type": "Point",
        "coordinates": [
          143.95706602603704,
          -80.3383917634305
        ]
      }
    },
    {
      "type": "Feature",
      "properties": {
        "norad_id": 28380,
        "name": "COSMOS 2407",
        "group": "musson",
        "lat": 9.814003449930363,
        "lon": -141.24688955075496,
        "alt_km": 964.3560348557576,
        "timestamp": "2025-12-06T11:28:11.332532+00:00",
        "meta_object_name": "COSMOS 2407",
        "meta_object_id": "2004-028A",
        "meta_epoch": "2025-12-05T23:15:47.898432",
        "meta_mean_motion": 13.76312462,
        "meta_eccentricity": 0.00404904,
        "meta_inclination": 82.9614,
        "meta_ra_of_asc_node": 217.9051,
        "meta_arg_of_pericenter": 73.2029,
        "meta_mean_anomaly": 298.6338,
        "meta_ephemeris_type": 0,
        "meta_classification_type": "U",
        "meta_norad_cat_id": 28380,
        "meta_element_set_no": 999,
        "meta_rev_at_epoch": 7330,
        "meta_bstar": 0.00010127991,
        "meta_mean_motion_dot": 1.15e-06,
        "meta_mean_motion_ddot": 0,
        "tle_line1": "1 28380U 04028A   25339.96930438  .00000115  00000+0  10128-3 0  9990",
        "tle_line2": "2 28380  82.9614 217.9051 0040490  73.2029 298.6338 13.76312462 73305"
      },
      "geometry": {
        "type": "Point",
        "coordinates": [
          -141.24688955075496,
          9.814003449930363
        ]
      }
    },
    {
      "type": "Feature",
      "properties": {
        "norad_id": 28521,
        "name": "COSMOS 2414",
        "group": "musson",
        "lat": 12.474212635504498,
        "lon": -169.03649935161283,
        "alt_km": 961.2499178325443,
        "timestamp": "2025-12-06T11:28:11.332543+00:00",
        "meta_object_name": "COSMOS 2414",
        "meta_object_id": "2005-002A",
        "meta_epoch": "2025-12-05T23:17:50.734176",
        "meta_mean_motion": 13.87901631,
        "meta_eccentricity": 0.00404859,
        "meta_inclination": 82.9499,
        "meta_ra_of_asc_node": 189.7783,
        "meta_arg_of_pericenter": 158.7058,
        "meta_mean_anomaly": 201.5802,
        "meta_ephemeris_type": 0,
        "meta_classification_type": "U",
        "meta_norad_cat_id": 28521,
        "meta_element_set_no": 999,
        "meta_rev_at_epoch": 5701,
        "meta_bstar": 9.5009256e-05,
        "meta_mean_motion_dot": 1.3e-06,
        "meta_mean_motion_ddot": 0,
        "tle_line1": "1 28521U 05002A   25339.97072609  .00000130  00000+0  95009-4 0  9997",
        "tle_line2": "2 28521  82.9499 189.7783 0040485 158.7058 201.5802 13.87901631 57019"
      },
      "geometry": {
        "type": "Point",
        "coordinates": [
          -169.03649935161283,
          12.474212635504498
        ]
      }
    },
    {
      "type": "Feature",
      "properties": {
        "norad_id": 32052,
        "name": "COSMOS 2429",
        "group": "musson",
        "lat": 72.75099981841818,
        "lon": 11.305237653543202,
        "alt_km": 946.709109160618,
        "timestamp": "2025-12-06T11:28:11.332553+00:00",
        "meta_object_name": "COSMOS 2429",
        "meta_object_id": "2007-038A",
        "meta_epoch": "2025-12-05T22:53:20.678784",
        "meta_mean_motion": 13.7514837,
        "meta_eccentricity": 0.00395368,
        "meta_inclination": 82.9803,
        "meta_ra_of_asc_node": 348.3119,
        "meta_arg_of_pericenter": 56.3301,
        "meta_mean_anomaly": 304.1616,
        "meta_ephemeris_type": 0,
        "meta_classification_type": "U",
        "meta_norad_cat_id": 32052,
        "meta_element_set_no": 999,
        "meta_rev_at_epoch": 91509,
        "meta_bstar": 6.8461136e-05,
        "meta_mean_motion_dot": 8.1e-07,
        "meta_mean_motion_ddot": 0,
        "tle_line1": "1 32052U 07038A   25339.95371156  .00000081  00000+0  68461-4 0  9996",
        "tle_line2": "2 32052  82.9803 348.3119 0039536  56.3301 304.1616 13.75148370915091"
      },
      "geometry": {
        "type": "Point",
        "coordinates": [
          11.305237653543202,
          72.75099981841818
        ]
      }
    },
    {
      "type": "Feature",
      "properties": {
        "norad_id": 35635,
        "name": "COSMOS 2454",
        "group": "musson",
        "lat": 17.086893856724984,
        "lon": 175.5698122753044,
        "alt_km": 924.9570394750881,
        "timestamp": "2025-12-06T11:28:11.332563+00:00",
        "meta_object_name": "COSMOS 2454",
        "meta_object_id": "2009-039A",
        "meta_epoch": "2025-12-06T00:01:46.066368",
        "meta_mean_motion": 13.89927461,
        "meta_eccentricity": 0.00205008,
        "meta_inclination": 82.9557,
        "meta_ra_of_asc_node": 173.753,
        "meta_arg_of_pericenter": 91.7639,
        "meta_mean_anomaly": 61.965,
        "meta_ephemeris_type": 0,
        "meta_classification_type": "U",
        "meta_norad_cat_id": 35635,
        "meta_element_set_no": 999,
        "meta_rev_at_epoch": 83056,
        "meta_bstar": 9.042393e-05,
        "meta_mean_motion_dot": 1.27e-06,
        "meta_mean_motion_ddot": 0,
        "tle_line1": "1 35635U 09039A   25340.00122762  .00000127  00000+0  90424-4 0  9999",
        "tle_line2": "2 35635  82.9557 173.7530 0020500  91.7639  61.9650 13.89927461830567"
      },
      "geometry": {
        "type": "Point",
        "coordinates": [
          175.5698122753044,
          17.086893856724984
        ]
      }
    },
    {
      "type": "Feature",
      "properties": {
        "norad_id": 36519,
        "name": "COSMOS 2463",
        "group": "musson",
        "lat": 69.35194946731241,
        "lon": -167.82266781855884,
        "alt_km": 1011.6602679837733,
        "timestamp": "2025-12-06T11:28:11.332574+00:00",
        "meta_object_name": "COSMOS 2463",
        "meta_object_id": "2010-017A",
        "meta_epoch": "2025-12-05T21:46:36.966720",
        "meta_mean_motion": 13.71648222,
        "meta_eccentricity": 0.00350056,
        "meta_inclination": 82.9619,
        "meta_ra_of_asc_node": 31.7331,
        "meta_arg_of_pericenter": 307.6756,
        "meta_mean_anomaly": 225.945,
        "meta_ephemeris_type": 0,
        "meta_classification_type": "U",
        "meta_norad_cat_id": 36519,
        "meta_element_set_no": 999,
        "meta_rev_at_epoch": 78143,
        "meta_bstar": 8.9201713e-05,
        "meta_mean_motion_dot": 9.5e-07,
        "meta_mean_motion_ddot": 0,
        "tle_line1": "1 36519U 10017A   25339.90737230  .00000095  00000+0  89202-4 0  9994",
        "tle_line2": "2 36519  82.9619  31.7331 0035005 307.6756 225.9450 13.71648222781432"
      },
      "geometry": {
        "type": "Point",
        "coordinates": [
          -167.82266781855884,
          69.35194946731241
        ]
      }
    }
  ]
}